[Satellite]
VERSION=1.1
NAME=ISIS 1
NICKNAME=ISIS 1
TLE1=1 03669U 69009A   20157.77021526  .00000035  00000-0  17482-4 0  9997
TLE2=2 03669  88.4363  27.8451 1712261  10.2862 352.8972 11.29486562111063
STATUS=0
